FENGYUN 3D              
1 43010U 17072A   26178.22524787  .00000124  00000+0  80448-4 0  9990
2 43010  99.0124 152.8290 0002334  46.6352 313.5018 14.19741404446415
NOAA 20 (JPSS-1)        
1 43013U 17073A   26178.29233958  .00000048  00000+0  43517-4 0  9999
2 43013  98.7773 117.6651 0000650 133.3769 226.7462 14.19513498445900
GOES 17                 
1 43226U 18022A   26178.19558528 -.00000172  00000+0  00000+0 0  9996
2 43226   0.9620  85.5465 0000712  25.2624 145.4023  1.00272677 30521
SENTINEL-3B             
1 43437U 18039A   26178.14815586  .00000098  00000+0  58567-4 0  9995
2 43437  98.6246 245.5374 0000757 108.4761 251.6502 14.26737400425549
FENGYUN 2H              
1 43491U 18050A   26178.10905734 -.00000120  00000+0  00000+0 0  9990
2 43491   3.0571  78.9644 0001699 123.0661 191.7900  1.00269779 29538
METOP-C                 
1 43689U 18087A   26178.27421159  .00000098  00000+0  64620-4 0  9997
2 43689  98.6640 237.6933 0002053 116.7847 243.3540 14.21514658396266
GEO-KOMPSAT-2A          
1 43823U 18100A   26178.18993595 -.00000332  00000+0  00000+0 0  9990
2 43823   0.0439 144.6953 0002374 304.3741  22.8763  1.00272660 27739
METEOR-M2 2             
1 44387U 19038A   26178.21961753  .00000535  00000+0  25111-3 0  9990
2 44387  98.9143 165.6531 0001667  33.8104 326.3180 14.24370043362729
ARKTIKA-M 1             
1 47719U 21016A   26175.46896265 -.00000298  00000+0  00000+0 0  9993
2 47719  63.2470  56.5720 7291000 269.9787  14.5750  2.00620016 38936
FENGYUN 3E              
1 49008U 21062A   26178.27846523  .00000404  00000+0  21124-3 0  9993
2 49008  98.7492 181.5740 0002771  69.8792 290.2683 14.19906073258012
GOES 18                 
1 51850U 22021A   26177.92354626  .00000108  00000+0  00000+0 0  9993
2 51850   0.0075  87.6581 0000647  38.4096 344.4465  1.00273321  6695
NOAA 21 (JPSS-2)        
1 54234U 22150A   26178.18395581  .00000022  00000+0  31238-4 0  9996
2 54234  98.7061 116.8053 0002230 137.5342 222.6008 14.19538186187964
METEOSAT-12 (MTG-I1)    
1 54743U 22170C   26178.16462916  .00000004  00000+0  00000+0 0  9996
2 54743   0.7492  24.5536 0003658  71.9230 237.7437  1.00275485 13072
TIANMU-1 03             
1 55973U 23039A   26178.26743993  .00015745  00000+0  30744-3 0  9995
2 55973  97.5229 352.6333 0003938  75.0832 285.0854 15.47562683182390
TIANMU-1 04             
1 55974U 23039B   26178.31763468  .00016320  00000+0  31191-3 0  9998
2 55974  97.5168 351.8397 0004358  68.0198 292.1515 15.48173840182418
TIANMU-1 05             
1 55975U 23039C   26178.31336036  .00015906  00000+0  31136-3 0  9994
2 55975  97.5211 352.2922 0003928  89.9268 270.2431 15.47489654182381
TIANMU-1 06             
1 55976U 23039D   26178.32164939  .00016397  00000+0  31446-3 0  9996
2 55976  97.5221 352.9465 0004112  85.2039 274.9681 15.48075440182410
FENGYUN 3G              
1 56232U 23055A   26178.27368655  .00024468  00000+0  38947-3 0  9996
2 56232  49.9932 294.0341 0007183 338.3041  21.7621 15.53064769181577
METEOR-M2 3             
1 57166U 23091A   26178.28650219  .00000009  00000+0  22824-4 0  9997
2 57166  98.6078 233.0580 0004839 130.7660 229.3939 14.24047575155954
TIANMU-1 07             
1 57399U 23101A   26178.30375610  .00006717  00000+0  23437-3 0  9991
2 57399  97.2593 228.7398 0004353 100.9776 259.1955 15.29921088163195
TIANMU-1 08             
1 57400U 23101B   26178.27037008  .00006732  00000+0  23482-3 0  9993
2 57400  97.2581 228.4763 0005662  90.9779 269.2111 15.29925227163187
TIANMU-1 09             
1 57401U 23101C   26178.25357188  .00006584  00000+0  22947-3 0  9996
2 57401  97.2539 227.8705 0004882 104.5883 255.5899 15.29959703163188
TIANMU-1 10             
1 57402U 23101D   26178.28680589  .00007013  00000+0  24442-3 0  9994
2 57402  97.2619 228.9637 0006445 100.6042 259.5925 15.29932116163188
FENGYUN 3F              
1 57490U 23111A   26178.26214502  .00000046  00000+0  42154-4 0  9998
2 57490  98.6834 248.0831 0001547  85.9531 274.1822 14.19940692150297
ARKTIKA-M 2             
1 58584U 23198A   26177.23312466  .00000156  00000+0  00000+0 0  9993
2 58584  63.2200 153.3551 6904874 267.3978  18.7558  2.00610703 18505
TIANMU-1 11             
1 58645U 23205A   26178.34143999  .00005829  00000+0  22192-3 0  9998
2 58645  97.3443 199.7390 0007734 340.2754  19.8185 15.27095694139074
TIANMU-1 12             
1 58646U 23205B   26178.31207299  .00003892  00000+0  14962-3 0  9994
2 58646  97.3433 199.4638 0005579 320.2359  39.8471 15.26992086139058
TIANMU-1 13             
1 58647U 23205C   26178.27965810  .00006102  00000+0  23356-3 0  9994
2 58647  97.3460 199.7060 0005025 296.5742  63.4982 15.26915094139041
TIANMU-1 14             
1 58648U 23205D   26178.33010087  .00005960  00000+0  22782-3 0  9992
2 58648  97.3395 198.9295 0005917 302.3801  57.6865 15.26960437139059
TIANMU-1 19             
1 58660U 23208A   26178.28269341  .00009031  00000+0  29733-3 0  9998
2 58660  97.4511 294.6348 0003436 278.9700  81.1152 15.31721236138875
