OBJECT_NAME,OBJECT_ID,EPOCH,MEAN_MOTION,ECCENTRICITY,INCLINATION,RA_OF_ASC_NODE,ARG_OF_PERICENTER,MEAN_ANOMALY,EPHEMERIS_TYPE,CLASSIFICATION_TYPE,NORAD_CAT_ID,ELEMENT_SET_NO,REV_AT_EPOCH,BSTAR,MEAN_MOTION_DOT,MEAN_MOTION_DDOT
FENGYUN 3D,2017-072A,2026-06-27T05:24:21.415968,14.19741404,.00023345,99.0124,152.8290,46.6352,313.5018,0,U,43010,999,44641,.80448295E-4,.124E-5,0
NOAA 20 (JPSS-1),2017-073A,2026-06-27T07:00:58.139712,14.19513498,.00006505,98.7773,117.6651,133.3769,226.7462,0,U,43013,999,44590,.4351693E-4,.48E-6,0
GOES 17,2018-022A,2026-06-27T04:41:38.568192,1.00272677,.00007126,0.9620,85.5465,25.2624,145.4023,0,U,43226,999,3052,0,-.172E-5,0
SENTINEL-3B,2018-039A,2026-06-27T03:33:20.666304,14.26737400,.00007571,98.6246,245.5374,108.4761,251.6502,0,U,43437,999,42554,.58567144E-4,.98E-6,0
FENGYUN 2H,2018-050A,2026-06-27T02:37:02.554176,1.00269779,.00016995,3.0571,78.9644,123.0661,191.7900,0,U,43491,999,2953,0,-.12E-5,0
METOP-C,2018-087A,2026-06-27T06:34:51.881376,14.21514658,.00020535,98.6640,237.6933,116.7847,243.3540,0,U,43689,999,39626,.64620136E-4,.98E-6,0
GEO-KOMPSAT-2A,2018-100A,2026-06-27T04:33:30.466080,1.00272660,.00023744,0.0439,144.6953,304.3741,22.8763,0,U,43823,999,2773,0,-.332E-5,0
METEOR-M2 2,2019-038A,2026-06-27T05:16:14.954592,14.24370043,.00016676,98.9143,165.6531,33.8104,326.3180,0,U,44387,999,36272,.25110805E-3,.535E-5,0
ARKTIKA-M 1,2021-016A,2026-06-24T11:15:18.372960,2.00620016,.7291,63.2470,56.5720,269.9787,14.5750,0,U,47719,999,3893,0,-.298E-5,0
FENGYUN 3E,2021-062A,2026-06-27T06:40:59.395872,14.19906073,.00027711,98.7492,181.5740,69.8792,290.2683,0,U,49008,999,25801,.21123659E-3,.404E-5,0
GOES 18,2022-021A,2026-06-26T22:09:54.396864,1.00273321,.0000647,0.0075,87.6581,38.4096,344.4465,0,U,51850,999,669,0,.108E-5,0
NOAA 21 (JPSS-2),2022-150A,2026-06-27T04:24:53.781984,14.19538186,.00022307,98.7061,116.8053,137.5342,222.6008,0,U,54234,999,18796,.31237771E-4,.22E-6,0
METEOSAT-12 (MTG-I1),2022-170C,2026-06-27T03:57:03.959424,1.00275485,.00036585,0.7492,24.5536,71.9230,237.7437,0,U,54743,999,1307,0,.4E-7,0
TIANMU-1 03,2023-039A,2026-06-27T06:25:06.809952,15.47562683,.00039381,97.5229,352.6333,75.0832,285.0854,0,U,55973,999,18239,.30744371E-3,.15745E-3,0
TIANMU-1 04,2023-039B,2026-06-27T07:37:23.636352,15.48173840,.00043583,97.5168,351.8397,68.0198,292.1515,0,U,55974,999,18241,.31190559E-3,.1632E-3,0
TIANMU-1 05,2023-039C,2026-06-27T07:31:14.335104,15.47489654,.00039288,97.5211,352.2922,89.9268,270.2431,0,U,55975,999,18238,.31135652E-3,.15906E-3,0
TIANMU-1 06,2023-039D,2026-06-27T07:43:10.507296,15.48075440,.00041128,97.5221,352.9465,85.2039,274.9681,0,U,55976,999,18241,.31445563E-3,.16397E-3,0
FENGYUN 3G,2023-055A,2026-06-27T06:34:06.517920,15.53064769,.00071838,49.9932,294.0341,338.3041,21.7621,0,U,56232,999,18157,.38946548E-3,.24468E-3,0
METEOR-M2 3,2023-091A,2026-06-27T06:52:33.789216,14.24047575,.0004839,98.6078,233.0580,130.7660,229.3939,0,U,57166,999,15595,.22823821E-4,.9E-7,0
TIANMU-1 07,2023-101A,2026-06-27T07:17:24.527040,15.29921088,.00043538,97.2593,228.7398,100.9776,259.1955,0,U,57399,999,16319,.23436813E-3,.6717E-4,0
TIANMU-1 08,2023-101B,2026-06-27T06:29:19.974912,15.29925227,.00056621,97.2581,228.4763,90.9779,269.2111,0,U,57400,999,16318,.23482088E-3,.6732E-4,0
TIANMU-1 09,2023-101C,2026-06-27T06:05:08.610432,15.29959703,.00048826,97.2539,227.8705,104.5883,255.5899,0,U,57401,999,16318,.22947342E-3,.6584E-4,0
TIANMU-1 10,2023-101D,2026-06-27T06:53:00.028896,15.29932116,.00064452,97.2619,228.9637,100.6042,259.5925,0,U,57402,999,16318,.2444162E-3,.7013E-4,0
FENGYUN 3F,2023-111A,2026-06-27T06:17:29.329728,14.19940692,.00015475,98.6834,248.0831,85.9531,274.1822,0,U,57490,999,15029,.42153785E-4,.46E-6,0
ARKTIKA-M 2,2023-198A,2026-06-26T05:35:41.970624,2.00610703,.69048743,63.2200,153.3551,267.3978,18.7558,0,U,58584,999,1850,0,.156E-5,0
TIANMU-1 11,2023-205A,2026-06-27T08:11:40.415136,15.27095694,.00077346,97.3443,199.7390,340.2754,19.8185,0,U,58645,999,13907,.22192094E-3,.5829E-4,0
TIANMU-1 12,2023-205B,2026-06-27T07:29:23.106336,15.26992086,.0005579,97.3433,199.4638,320.2359,39.8471,0,U,58646,999,13905,.14962E-3,.3892E-4,0
TIANMU-1 13,2023-205C,2026-06-27T06:42:42.459840,15.26915094,.00050258,97.3460,199.7060,296.5742,63.4982,0,U,58647,999,13904,.23355884E-3,.6102E-4,0
TIANMU-1 14,2023-205D,2026-06-27T07:55:20.715168,15.26960437,.00059173,97.3395,198.9295,302.3801,57.6865,0,U,58648,999,13905,.22782069E-3,.596E-4,0
TIANMU-1 19,2023-208A,2026-06-27T06:47:04.710624,15.31721236,.00034366,97.4511,294.6348,278.9700,81.1152,0,U,58660,999,13887,.29733429E-3,.9031E-4,0
